GLOBALSTAR M084         
1 38040U 11080A   24269.90307553 -.00000085  00000+0  10651-3 0  9999
2 38040  51.9990 133.0523 0000726  99.3855 273.8774 12.62267986589291
GLOBALSTAR M080         
1 38041U 11080B   24269.87673256 -.00000081  00000+0  12728-3 0  9995
2 38041  52.0044 134.6470 0000999 103.8626 269.4586 12.62266123589419
GLOBALSTAR M082         
1 38042U 11080C   24269.91943669 -.00000087  00000+0  91318-4 0  9998
2 38042  52.0062  89.9327 0000771  50.8800  96.7302 12.62267106590125
GLOBALSTAR M092         
1 38043U 11080D   24269.50230237 -.00000075  00000+0  15863-3 0  9991
2 38043  52.0079 181.5663 0000490  70.5135 100.7865 12.62266540588526
GLOBALSTAR M090         
1 38044U 11080E   24269.94959595 -.00000100  00000+0  23844-4 0  9993
2 38044  51.9874  83.9891 0000798  71.8114  92.9940 12.62268011590241
GLOBALSTAR M086         
1 38045U 11080F   24269.89292172 -.00000079  00000+0  13896-3 0  9999
2 38045  51.9885  84.6918 0001769  91.5155  56.2668 12.62267554590280
GLOBALSTAR M097         
1 39072U 13005A   24269.57050725 -.00000094  00000+0  55641-4 0  9992
2 39072  52.0076 359.9559 0000773  83.9051 276.1904 12.62270520537394
GLOBALSTAR M093         
1 39073U 13005B   24269.54364194 -.00000069  00000+0  19592-3 0  9994
2 39073  51.9840 353.7615 0000730  80.3411 279.7538 12.62264543537346
